[ {"CCSDS_OMM_VERS": "3.0", "COMMENT": "GENERATED VIA SPACE-TRACK.ORG API", "CREATION_DATE": "2020-02-02T02:42:46", "ORIGINATOR": "18 SPCS", "OBJECT_NAME": "OPS-SAT", "OBJECT_ID": "2019-092F", "CENTER_NAME": "EARTH", "REF_FRAME": "TEME", "TIME_SYSTEM": "UTC", "MEAN_ELEMENT_THEORY": "SGP4", "EPOCH": "2020-02-01T06:50:37.141440", "MEAN_MOTION": "15.15231022", "ECCENTRICITY": "0.00157150", "INCLINATION": "97.4645", "RA_OF_ASC_NODE": "217.9248", "ARG_OF_PERICENTER": "109.2755", "MEAN_ANOMALY": "251.0229", "EPHEMERIS_TYPE": "0", "CLASSIFICATION_TYPE": "U", "NORAD_CAT_ID": "44878", "ELEMENT_SET_NO": "999", "REV_AT_EPOCH": "676", "BSTAR": "0.00000000000000", "MEAN_MOTION_DOT": "-0.00000066", "MEAN_MOTION_DDOT": "0.0000000000000", "SEMIMAJOR_AXIS": "6898.414", "PERIOD": "95.035", "APOAPSIS": "531.120", "PERIAPSIS": "509.438", "OBJECT_TYPE": "PAYLOAD", "RCS_SIZE": "SMALL", "COUNTRY_CODE": "ESA", "LAUNCH_DATE": "2019-12-18", "SITE": "FRGUI", "DECAY_DATE": null, "FILE": "2693829", "GP_ID": "147867646", "TLE_LINE0": "0 OPS-SAT", "TLE_LINE1": "1 44878U 19092F   20032.28515210 -.00000066 +00000-0 +00000-0 0  9996", "TLE_LINE2": "2 44878 097.4645 217.9248 0015715 109.2755 251.0229 15.15231022006761"}, {"CCSDS_OMM_VERS": "3.0", "COMMENT": "GENERATED VIA SPACE-TRACK.ORG API", "CREATION_DATE": "2020-02-01T22:20:15", "ORIGINATOR": "18 SPCS", "OBJECT_NAME": "OPS-SAT", "OBJECT_ID": "2019-092F", "CENTER_NAME": "EARTH", "REF_FRAME": "TEME", "TIME_SYSTEM": "UTC", "MEAN_ELEMENT_THEORY": "SGP4", "EPOCH": "2020-02-01T14:46:05.709504", "MEAN_MOTION": "15.15231877", "ECCENTRICITY": "0.00157650", "INCLINATION": "97.4635", "RA_OF_ASC_NODE": "218.2506", "ARG_OF_PERICENTER": "108.4076", "MEAN_ANOMALY": "251.8961", "EPHEMERIS_TYPE": "0", "CLASSIFICATION_TYPE": "U", "NORAD_CAT_ID": "44878", "ELEMENT_SET_NO": "999", "REV_AT_EPOCH": "681", "BSTAR": "0.00000000000000", "MEAN_MOTION_DOT": "-0.00000066", "MEAN_MOTION_DDOT": "0.0000000000000", "SEMIMAJOR_AXIS": "6898.411", "PERIOD": "95.034", "APOAPSIS": "531.152", "PERIAPSIS": "509.401", "OBJECT_TYPE": "PAYLOAD", "RCS_SIZE": "SMALL", "COUNTRY_CODE": "ESA", "LAUNCH_DATE": "2019-12-18", "SITE": "FRGUI", "DECAY_DATE": null, "FILE": "2693698", "GP_ID": "147845360", "TLE_LINE0": "0 OPS-SAT", "TLE_LINE1": "1 44878U 19092F   20032.61534386 -.00000066  00000-0  00000+0 0  9997", "TLE_LINE2": "2 44878  97.4635 218.2506 0015765 108.4076 251.8961 15.15231877  6818"}, {"CCSDS_OMM_VERS": "3.0", "COMMENT": "GENERATED VIA SPACE-TRACK.ORG API", "CREATION_DATE": "2020-02-02T16:47:54", "ORIGINATOR": "18 SPCS", "OBJECT_NAME": "OPS-SAT", "OBJECT_ID": "2019-092F", "CENTER_NAME": "EARTH", "REF_FRAME": "TEME", "TIME_SYSTEM": "UTC", "MEAN_ELEMENT_THEORY": "SGP4", "EPOCH": "2020-02-02T09:47:14.213760", "MEAN_MOTION": "15.15232813", "ECCENTRICITY": "0.00159430", "INCLINATION": "97.4638", "RA_OF_ASC_NODE": "219.0280", "ARG_OF_PERICENTER": "106.3154", "MEAN_ANOMALY": "253.9879", "EPHEMERIS_TYPE": "0", "CLASSIFICATION_TYPE": "U", "NORAD_CAT_ID": "44878", "ELEMENT_SET_NO": "999", "REV_AT_EPOCH": "693", "BSTAR": "0.00000000000000", "MEAN_MOTION_DOT": "-0.00000066", "MEAN_MOTION_DDOT": "0.0000000000000", "SEMIMAJOR_AXIS": "6898.408", "PERIOD": "95.034", "APOAPSIS": "531.271", "PERIAPSIS": "509.275", "OBJECT_TYPE": "PAYLOAD", "RCS_SIZE": "SMALL", "COUNTRY_CODE": "ESA", "LAUNCH_DATE": "2019-12-18", "SITE": "FRGUI", "DECAY_DATE": null, "FILE": "2694136", "GP_ID": "147894636", "TLE_LINE0": "0 OPS-SAT", "TLE_LINE1": "1 44878U 19092F   20033.40780340 -.00000066 +00000-0 +00000-0 0  9999", "TLE_LINE2": "2 44878 097.4638 219.0280 0015943 106.3154 253.9879 15.15232813006936"}, {"CCSDS_OMM_VERS": "3.0", "COMMENT": "GENERATED VIA SPACE-TRACK.ORG API", "CREATION_DATE": "2020-02-03T01:40:47", "ORIGINATOR": "18 SPCS", "OBJECT_NAME": "OPS-SAT", "OBJECT_ID": "2019-092F", "CENTER_NAME": "EARTH", "REF_FRAME": "TEME", "TIME_SYSTEM": "UTC", "MEAN_ELEMENT_THEORY": "SGP4", "EPOCH": "2020-02-02T14:32:31.307424", "MEAN_MOTION": "15.15233359", "ECCENTRICITY": "0.00158740", "INCLINATION": "97.4632", "RA_OF_ASC_NODE": "219.2223", "ARG_OF_PERICENTER": "106.1092", "MEAN_ANOMALY": "254.1973", "EPHEMERIS_TYPE": "0", "CLASSIFICATION_TYPE": "U", "NORAD_CAT_ID": "44878", "ELEMENT_SET_NO": "999", "REV_AT_EPOCH": "696", "BSTAR": "0.00000000000000", "MEAN_MOTION_DOT": "-0.00000066", "MEAN_MOTION_DDOT": "0.0000000000000", "SEMIMAJOR_AXIS": "6898.407", "PERIOD": "95.034", "APOAPSIS": "531.222", "PERIAPSIS": "509.321", "OBJECT_TYPE": "PAYLOAD", "RCS_SIZE": "SMALL", "COUNTRY_CODE": "ESA", "LAUNCH_DATE": "2019-12-18", "SITE": "FRGUI", "DECAY_DATE": null, "FILE": "2694328", "GP_ID": "147937698", "TLE_LINE0": "0 OPS-SAT", "TLE_LINE1": "1 44878U 19092F   20033.60591791 -.00000066 +00000-0 +00000-0 0  9991", "TLE_LINE2": "2 44878 097.4632 219.2223 0015874 106.1092 254.1973 15.15233359006968"}, {"CCSDS_OMM_VERS": "3.0", "COMMENT": "GENERATED VIA SPACE-TRACK.ORG API", "CREATION_DATE": "2020-02-03T07:00:15", "ORIGINATOR": "18 SPCS", "OBJECT_NAME": "OPS-SAT", "OBJECT_ID": "2019-092F", "CENTER_NAME": "EARTH", "REF_FRAME": "TEME", "TIME_SYSTEM": "UTC", "MEAN_ELEMENT_THEORY": "SGP4", "EPOCH": "2020-02-03T01:38:11.215968", "MEAN_MOTION": "15.15233531", "ECCENTRICITY": "0.00158760", "INCLINATION": "97.4632", "RA_OF_ASC_NODE": "219.6762", "ARG_OF_PERICENTER": "104.9111", "MEAN_ANOMALY": "255.3905", "EPHEMERIS_TYPE": "0", "CLASSIFICATION_TYPE": "U", "NORAD_CAT_ID": "44878", "ELEMENT_SET_NO": "999", "REV_AT_EPOCH": "703", "BSTAR": "0.00000000000000", "MEAN_MOTION_DOT": "-0.00000066", "MEAN_MOTION_DDOT": "0.0000000000000", "SEMIMAJOR_AXIS": "6898.406", "PERIOD": "95.034", "APOAPSIS": "531.223", "PERIAPSIS": "509.319", "OBJECT_TYPE": "PAYLOAD", "RCS_SIZE": "SMALL", "COUNTRY_CODE": "ESA", "LAUNCH_DATE": "2019-12-18", "SITE": "FRGUI", "DECAY_DATE": null, "FILE": "2694376", "GP_ID": "147958250", "TLE_LINE0": "0 OPS-SAT", "TLE_LINE1": "1 44878U 19092F   20034.06818537 -.00000066  00000-0  00000+0 0  9991", "TLE_LINE2": "2 44878  97.4632 219.6762 0015876 104.9111 255.3905 15.15233531  7039"}, {"CCSDS_OMM_VERS": "3.0", "COMMENT": "GENERATED VIA SPACE-TRACK.ORG API", "CREATION_DATE": "2020-02-04T01:33:09", "ORIGINATOR": "18 SPCS", "OBJECT_NAME": "OPS-SAT", "OBJECT_ID": "2019-092F", "CENTER_NAME": "EARTH", "REF_FRAME": "TEME", "TIME_SYSTEM": "UTC", "MEAN_ELEMENT_THEORY": "SGP4", "EPOCH": "2020-02-03T14:18:56.974464", "MEAN_MOTION": "15.15234530", "ECCENTRICITY": "0.00157050", "INCLINATION": "97.4625", "RA_OF_ASC_NODE": "220.1937", "ARG_OF_PERICENTER": "103.6592", "MEAN_ANOMALY": "256.6532", "EPHEMERIS_TYPE": "0", "CLASSIFICATION_TYPE": "U", "NORAD_CAT_ID": "44878", "ELEMENT_SET_NO": "999", "REV_AT_EPOCH": "711", "BSTAR": "0.00000000000000", "MEAN_MOTION_DOT": "-0.00000066", "MEAN_MOTION_DDOT": "0.0000000000000", "SEMIMAJOR_AXIS": "6898.403", "PERIOD": "95.034", "APOAPSIS": "531.102", "PERIAPSIS": "509.434", "OBJECT_TYPE": "PAYLOAD", "RCS_SIZE": "SMALL", "COUNTRY_CODE": "ESA", "LAUNCH_DATE": "2019-12-18", "SITE": "FRGUI", "DECAY_DATE": null, "FILE": "2694587", "GP_ID": "148020580", "TLE_LINE0": "0 OPS-SAT", "TLE_LINE1": "1 44878U 19092F   20034.59649276 -.00000066 +00000-0 +00000-0 0  9992", "TLE_LINE2": "2 44878 097.4625 220.1937 0015705 103.6592 256.6532 15.15234530007111"}, {"CCSDS_OMM_VERS": "3.0", "COMMENT": "GENERATED VIA SPACE-TRACK.ORG API", "CREATION_DATE": "2020-02-04T14:20:14", "ORIGINATOR": "18 SPCS", "OBJECT_NAME": "OPS-SAT", "OBJECT_ID": "2019-092F", "CENTER_NAME": "EARTH", "REF_FRAME": "TEME", "TIME_SYSTEM": "UTC", "MEAN_ELEMENT_THEORY": "SGP4", "EPOCH": "2020-02-04T10:55:11.024544", "MEAN_MOTION": "15.15236705", "ECCENTRICITY": "0.00157670", "INCLINATION": "97.4627", "RA_OF_ASC_NODE": "221.0387", "ARG_OF_PERICENTER": "102.2973", "MEAN_ANOMALY": "258.0303", "EPHEMERIS_TYPE": "0", "CLASSIFICATION_TYPE": "U", "NORAD_CAT_ID": "44878", "ELEMENT_SET_NO": "999", "REV_AT_EPOCH": "724", "BSTAR": "0.00000000000000", "MEAN_MOTION_DOT": "-0.00000066", "MEAN_MOTION_DDOT": "0.0000000000000", "SEMIMAJOR_AXIS": "6898.397", "PERIOD": "95.034", "APOAPSIS": "531.138", "PERIAPSIS": "509.385", "OBJECT_TYPE": "PAYLOAD", "RCS_SIZE": "SMALL", "COUNTRY_CODE": "ESA", "LAUNCH_DATE": "2019-12-18", "SITE": "FRGUI", "DECAY_DATE": null, "FILE": "2695048", "GP_ID": "148050031", "TLE_LINE0": "0 OPS-SAT", "TLE_LINE1": "1 44878U 19092F   20035.45498871 -.00000066  00000-0  00000+0 0  9990", "TLE_LINE2": "2 44878  97.4627 221.0387 0015767 102.2973 258.0303 15.15236705  7240"}, {"CCSDS_OMM_VERS": "3.0", "COMMENT": "GENERATED VIA SPACE-TRACK.ORG API", "CREATION_DATE": "2020-02-05T19:36:34", "ORIGINATOR": "18 SPCS", "OBJECT_NAME": "OPS-SAT", "OBJECT_ID": "2019-092F", "CENTER_NAME": "EARTH", "REF_FRAME": "TEME", "TIME_SYSTEM": "UTC", "MEAN_ELEMENT_THEORY": "SGP4", "EPOCH": "2020-02-04T14:05:22.000416", "MEAN_MOTION": "15.15236912", "ECCENTRICITY": "0.00157700", "INCLINATION": "97.4625", "RA_OF_ASC_NODE": "221.1682", "ARG_OF_PERICENTER": "101.7788", "MEAN_ANOMALY": "258.5227", "EPHEMERIS_TYPE": "0", "CLASSIFICATION_TYPE": "U", "NORAD_CAT_ID": "44878", "ELEMENT_SET_NO": "999", "REV_AT_EPOCH": "726", "BSTAR": "0.00000000000000", "MEAN_MOTION_DOT": "-0.00000066", "MEAN_MOTION_DDOT": "0.0000000000000", "SEMIMAJOR_AXIS": "6898.396", "PERIOD": "95.034", "APOAPSIS": "531.140", "PERIAPSIS": "509.382", "OBJECT_TYPE": "PAYLOAD", "RCS_SIZE": "SMALL", "COUNTRY_CODE": "ESA", "LAUNCH_DATE": "2019-12-18", "SITE": "FRGUI", "DECAY_DATE": null, "FILE": "2695752", "GP_ID": "148104192", "TLE_LINE0": "0 OPS-SAT", "TLE_LINE1": "1 44878U 19092F   20035.58706019 -.00000066 +00000-0 +00000-0 0  9991", "TLE_LINE2": "2 44878 097.4625 221.1682 0015770 101.7788 258.5227 15.15236912007261"}]